TIANMU-1 08             
1 57400U 23101B   26066.00237819  .00000346  00000+0  14775-4 0  9993
2 57400  97.2717 118.7901 0006380 134.2174 225.9592 15.29204229146020
STARLINK-34609          
1 64768U 25147P   26068.76556498  .00038808  00000+0  13162-2 0  9993
2 64768  53.1589 232.4432 0001165  75.4751 284.6379 15.30183918 38904
